{
  "norad_id": 57062,
  "name": "STARLINK-5536",
  "history": [
    {
      "epoch": "2026-03-28T22:00:01.999584Z",
      "apogee_km": 486.58463624414435,
      "perigee_km": 484.50850923706093,
      "latitude_deg": 13.327023570240794,
      "longitude_deg": -154.468046016979,
      "height_km": 485.05365067243963,
      "semi_major_axis_km": 6863.683572740602,
      "eccentricity": 0.00015124,
      "inclination_deg": 43.001,
      "raan_deg": 347.238,
      "arg_perigee_deg": 261.8368,
      "mean_anomaly_deg": 117.8666,
      "mean_motion_rev_day": 15.26746319
    },
    {
      "epoch": "2026-03-29T04:00:01.999584Z",
      "apogee_km": 486.6983680895446,
      "perigee_km": 484.6007949102386,
      "latitude_deg": -28.785853830190543,
      "longitude_deg": 63.375046921496846,
      "height_km": 492.4740038372971,
      "semi_major_axis_km": 6863.786581499891,
      "eccentricity": 0.0001528,
      "inclination_deg": 43.0012,
      "raan_deg": 345.828,
      "arg_perigee_deg": 269.3737,
      "mean_anomaly_deg": 46.0142,
      "mean_motion_rev_day": 15.2671195
    },
    {
      "epoch": "2026-03-30T04:00:01.999584Z",
      "apogee_km": 486.78674540994234,
      "perigee_km": 484.5463999238227,
      "latitude_deg": 35.52669699206313,
      "longitude_deg": 142.20511362947366,
      "height_km": 488.1905698424072,
      "semi_major_axis_km": 6863.803572666882,
      "eccentricity": 0.0001632,
      "inclination_deg": 43.0013,
      "raan_deg": 340.1876,
      "arg_perigee_deg": 268.6309,
      "mean_anomaly_deg": 149.4838,
      "mean_motion_rev_day": 15.26706281
    },
    {
      "epoch": "2026-03-30T06:00:02.000160Z",
      "apogee_km": 486.7003050696185,
      "perigee_km": 484.47741881197,
      "latitude_deg": 15.722215864991323,
      "longitude_deg": -135.4055677613352,
      "height_km": 485.1177837427463,
      "semi_major_axis_km": 6863.725861940794,
      "eccentricity": 0.00016193,
      "inclination_deg": 43.0012,
      "raan_deg": 339.7167,
      "arg_perigee_deg": 270.061,
      "mean_anomaly_deg": 246.6035,
      "mean_motion_rev_day": 15.26732209
    },
    {
      "epoch": "2026-03-30T14:00:03.000384Z",
      "apogee_km": 486.75303871675806,
      "perigee_km": 484.5203904028858,
      "latitude_deg": -7.5539248329704485,
      "longitude_deg": 127.97937568556411,
      "height_km": 486.46229287166045,
      "semi_major_axis_km": 6863.773714559821,
      "eccentricity": 0.00016264,
      "inclination_deg": 43.0011,
      "raan_deg": 337.8351,
      "arg_perigee_deg": 268.6058,
      "mean_anomaly_deg": 282.3765,
      "mean_motion_rev_day": 15.26716243
    },
    {
      "epoch": "2026-03-30T22:00:00.999936Z",
      "apogee_km": 486.6994521890474,
      "perigee_km": 484.4705271101293,
      "latitude_deg": -29.046123938331778,
      "longitude_deg": 33.96926788863767,
      "height_km": 492.4536348509562,
      "semi_major_axis_km": 6863.721989649588,
      "eccentricity": 0.00016237,
      "inclination_deg": 43.0011,
      "raan_deg": 335.9586,
      "arg_perigee_deg": 270.4159,
      "mean_anomaly_deg": 314.6683,
      "mean_motion_rev_day": 15.26733501
    }
  ]
}